SIRION PATHFINDER-2     
1 43759U 18099B   26138.38207869  .00002718  00000+0  15208-3 0  9994
2 43759  97.4270 188.1510 0009933  51.7569 308.4555 15.14250244408112
CORVUS BC4              
1 43767U 18099K   26138.08380287  .00003097  00000+0  18270-3 0  9999
2 43767  97.4086 181.9478 0010050 103.8501 256.3848 15.12226424407854
M2 PATHFINDER           
1 45727U 20037E   26138.25291086  .00001188  00000+0  89307-4 0  9998
2 45727  97.8161 329.1504 0009930 251.4495 108.5652 15.04533933320990
NETSAT-4                
1 46504U 20068U   26138.49435456  .00011013  00000+0  25348-3 0  9995
2 46504  97.8611 144.3747 0007435  75.7611 284.4460 15.42798689311191
NETSAT-3                
1 46505U 20068V   26138.47740281  .00011142  00000+0  26708-3 0  9993
2 46505  97.8660 142.6116 0007497  88.7525 271.4579 15.41572600311103
NETSAT-1                
1 46506U 20068W   26138.46024943  .00007742  00000+0  23893-3 0  9996
2 46506  97.8750 137.2677 0006974 108.2431 251.9570 15.33856382310745
NETSAT-2                
1 46507U 20068X   26138.24858022  .00013290  00000+0  28725-3 0  9990
2 46507  97.8625 143.9020 0006292  98.9669 261.2291 15.44629562311110
GREENCUBE (IO-117)      
1 53109U 22080E   26138.45774429 -.00000003  00000+0  00000+0 0  9994
2 53109  70.1432 308.5883 0008836 296.6746  63.3009  6.42583323 90159
SITRO-AIS 5 (KATYS)     
1 57176U 23091L   26138.49063472  .00006794  00000+0  24576-3 0  9998
2 57176  97.5074 202.1220 0011260 199.3195 160.7619 15.28708729159808
SITRO-AIS 6 (CHIRKIN)   
1 57192U 23091AC  26138.46794058  .00006305  00000+0  25279-3 0  9993
2 57192  97.5082 201.3727 0011374 202.7860 157.2875 15.25315952159750
SITRO-AIS 8 (ANOKHIN)   
1 57193U 23091AD  26138.49295742  .00008210  00000+0  27411-3 0  9990
2 57193  97.5069 203.5955 0010576 194.7995 165.2938 15.31256581159900
SITRO-AIS 7 (FARTUSHNIY)
1 57194U 23091AE  26138.53076435  .00006139  00000+0  24841-3 0  9994
2 57194  97.5079 201.2756 0011179 203.6459 156.4266 15.25019247159759
SITRO-AIS 10 (BURDAEV)  
1 57199U 23091AK  26138.51601417  .00011819  00000+0  32432-3 0  9997
2 57199  97.5091 208.3751 0007561 167.8872 192.2556 15.37393613160208
SITRO-AIS 9 (SHCHUKIN)  
1 57201U 23091AM  26138.53335162  .00011818  00000+0  32908-3 0  9991
2 57201  97.5090 208.1453 0007738 168.3141 191.8284 15.36937597160194
SITRO-AIS 12 (SMIRENNIY)
1 57204U 23091AQ  26138.52951691  .00011320  00000+0  31247-3 0  9997
2 57204  97.5102 208.5902 0007541 162.5980 197.5523 15.37223123160219
SITRO-AIS 11 (SHEFFER)  
1 57208U 23091AU  26138.48577551  .00011854  00000+0  32295-3 0  9991
2 57208  97.5101 208.7740 0007452 162.5168 197.6334 15.37618069160222
SITRO-AIS 25            
1 59066U 24039R   26138.49271308  .00003522  00000+0  27418-3 0  9994
2 59066  95.3918 214.6896 0147326  72.2978 289.4268 14.93294567120290
SITRO-AIS 26            
1 59067U 24039S   26138.49008002  .00003433  00000+0  26848-3 0  9991
2 59067  95.3919 214.5916 0147648  72.8374 288.8956 14.93096614120286
SITRO-AIS 27            
1 59068U 24039T   26138.53558708  .00003139  00000+0  24371-3 0  9992
2 59068  95.3919 214.8809 0146590  71.3617 290.3461 14.93507329120313
SITRO-AIS 28            
1 59071U 24039U   26138.51370976  .00002838  00000+0  22036-3 0  9994
2 59071  95.3923 214.9114 0146582  71.2843 290.4227 14.93543904120313
GRBBETA                 
1 60237U 24128C   26138.21904839  .00002680  00000+0  19190-3 0  9999
2 60237  61.9902 321.3893 0044713 128.4087 232.1034 15.06369712101754
OOV-CUBE (TUBSAT-30)    
1 60240U 24128F   26138.24440683  .00001544  00000+0  12844-3 0  9995
2 60240  61.9946 329.9701 0048363 127.2394 233.3124 15.02606171101618
ROBUSTA-3A (MEDITERRAN*)
1 60243U 24128J   26138.49629674  .00005260  00000+0  31757-3 0  9997
2 60243  61.9867 313.2040 0045441 122.4187 238.1316 15.11165445101931
LASARSAT                
1 62391U 24247Q   26138.50005312  .00019038  00000+0  40960-3 0  9998
2 62391  44.9758  68.7838 0005415 160.1412 199.9689 15.44392444 78725
CROCUBE                 
1 62394U 24247T   26138.20848084  .00021336  00000+0  43364-3 0  9994
2 62394  44.9731  68.2037 0005074 161.9433 198.1638 15.45997443 78702
FORESAIL-1 PRIME        
1 66778U 25276DS  26138.14640363  .00003594  00000+0  17800-3 0  9992
2 66778  97.4208 211.9724 0002301 170.4072 189.7206 15.18400035 25848
KNACKSAT-2              
1 67683U 98067XZ  26138.15020715  .00031493  00000+0  42858-3 0  9990
2 67683  51.6302  85.2389 0012324  88.8056 271.4348 15.57192031 15594
